              TDR Cartesian                         TDR Cartesian  
    -----------------------------------       --------------------------------
     X    =       -1695385.01                 X    =         -516753.35
     Y    =      -14178671.17  feet           Y    =        -4321658.97  meter
     Z    =       17040396.71                 Z    =         5193912.92
     XDOT =      22529.203524                 XDOT =        6866.901234
     YDOT =      -7681.327950  feet/sec       YDOT =       -2341.268759  meter/sec
     ZDOT =      -4135.248482                 ZDOT =       -1260.423737
  
  
    The mean element set is posted at the UTC for which position is
    just north of the next ascending node relative to the above
    vector time
 
 
    TWO LINE MEAN ELEMENT SET
  
    ISS
    1 25544U 98067A   16082.48011003  .00016717  00000-0  10270-3 0  9102
    2 25544  51.6422 130.4787 0002016 327.5184  32.5845 15.54275918 31492
  
  
    Satellite: ISS
    Catalog Number: 25544
    Epoch time:      16082.48011003   =   yrday.fracday
    Element set:     910
    Inclination:       51.6422  deg
    RA of node:       130.4787  deg
    Eccentricity:     .0002016     
    Arg of perigee:   327.5184  deg
    Mean anomaly:      32.5845  deg
    Mean motion:   15.54275918  rev/day
    Decay rate:    1.67170E-04  rev/day^2
    Epoch rev:            3149
    Checksum:              288
 
 
    Coasting Arc #12 (Orbit 3159)
    ---------------------------------------
 
    Vector Time (GMT): 2016/083/03:23:00.000
    Vector Time (MET): N/A
    Weight (LBS)     : 905478.2
 
              M50 Cartesian                         M50 Keplerian  
    -----------------------------------       --------------------------------
     X    =       -2582466.70                 A    =         6777464.24  meter
     Y    =       -3430027.96  meter          E    =           .0004583
     Z    =        5242553.81                 I    =           51.91379
     XDOT =       5148.867350                 Wp   =           32.06710
     YDOT =      -5576.231337  meter/sec      RA   =          126.14973  deg
     ZDOT =      -1107.797327                 TA   =           68.53091
                                              MA   =           68.48204
                                              Ha   =            220.797  n.mi
                                              Hp   =            214.772
 
              M50 Cartesian                         J2K Cartesian  
    -----------------------------------       --------------------------------
     X    =       -8472659.76                 X    =        -2569385.34
     Y    =      -11253372.58  feet           Y    =        -3458832.82  meter
     Z    =       17199979.70                 Z    =         5230041.21
     XDOT =      16892.609417                 XDOT =        5216.220670
     YDOT =     -18294.722235  feet/sec       YDOT =       -5518.276864  meter/sec
     ZDOT =      -3634.505665                 ZDOT =       -1082.620987
 
              TDR Cartesian                         TDR Cartesian  
    -----------------------------------       --------------------------------
     X    =       14145482.76                 X    =         4311543.14
     Y    =         421975.52  feet           Y    =          128618.14  meter
     Z    =       17146163.24                 Z    =         5226150.56
     XDOT =       3583.740808                 XDOT =        1092.324198
     YDOT =      23630.674053  feet/sec       YDOT =        7202.629451  meter/sec
     ZDOT =      -3524.213510                 ZDOT =       -1074.180278
  
  
    The mean element set is posted at the UTC for which position is
    just north of the next ascending node relative to the above
    vector time
 
 
    TWO LINE MEAN ELEMENT SET
  
    ISS
    1 25544U 98067A   16083.18737993  .00016717  00000-0  10270-3 0  9114
    2 25544  51.6385 126.9502 0001990 338.2547  21.8521 15.54220003 31607
  
  
    Satellite: ISS
    Catalog Number: 25544
    Epoch time:      16083.18737993   =   yrday.fracday
    Element set:     911
    Inclination:       51.6385  deg
    RA of node:       126.9502  deg
    Eccentricity:     .0001990     
    Arg of perigee:   338.2547  deg
    Mean anomaly:      21.8521  deg
    Mean motion:   15.54220003  rev/day
    Decay rate:    1.67170E-04  rev/day^2
    Epoch rev:            3160
    Checksum:              295
 
 
    Coasting Arc #13 (Orbit 3174)
    ---------------------------------------
 
    Vector Time (GMT): 2016/084/03:23:00.000
    Vector Time (MET): N/A
    Weight (LBS)     : 905478.2
 
              M50 Cartesian                         M50 Keplerian  
    -----------------------------------       --------------------------------
     X    =        1383007.11                 A    =         6779793.24  meter
     Y    =        4745901.61  meter          E    =           .0009474
     Z    =       -4648834.80                 I    =           51.94088
     XDOT =      -5442.289538                 Wp   =          100.49036
     YDOT =       4496.556222  meter/sec      RA   =          121.17120  deg
     ZDOT =       2974.846869                 TA   =          199.04215
                                              MA   =          199.07759
                                              Ha   =            220.740  n.mi
                                              Hp   =            214.626
 
              M50 Cartesian                         J2K Cartesian  
    -----------------------------------       --------------------------------
     X    =        4537424.90                 X    =         1352416.53
     Y    =       15570543.34  feet           Y    =         4761195.53  meter
     Z    =      -15252082.66                 Z    =        -4642191.55
     XDOT =     -17855.280636                 XDOT =       -5506.617207
     YDOT =      14752.481043  feet/sec       YDOT =        4435.337719  meter/sec
     ZDOT =       9759.996291                 ZDOT =        2948.252604
 
              TDR Cartesian                         TDR Cartesian  
    -----------------------------------       --------------------------------
     X    =      -15116295.33                 X    =        -4607446.82
     Y    =       -5948436.08  feet           Y    =        -1813083.32  meter
     Z    =      -15223987.45                 Z    =        -4640271.38
     XDOT =      -1004.085932                 XDOT =        -306.045392
     YDOT =     -22100.675669  feet/sec       YDOT =       -6736.285944  meter/sec
     ZDOT =       9643.704468                 ZDOT =        2939.401122
  
  
    The mean element set is posted at the UTC for which position is
    just north of the next ascending node relative to the above
    vector time
 
 
    TWO LINE MEAN ELEMENT SET
  
    ISS
    1 25544U 98067A   16084.15182610  .00016717  00000-0  10270-3 0  9123
    2 25544  51.6391 122.1409 0001893 345.8721  14.2379 15.54272361 31755
  
  
    Satellite: ISS
    Catalog Number: 25544
    Epoch time:      16084.15182610   =   yrday.fracday
    Element set:     912
    Inclination:       51.6391  deg
    RA of node:       122.1409  deg
    Eccentricity:     .0001893     
    Arg of perigee:   345.8721  deg
    Mean anomaly:      14.2379  deg
    Mean motion:   15.54272361  rev/day
    Decay rate:    1.67170E-04  rev/day^2
    Epoch rev:            3175
    Checksum:              292
 
 
    Coasting Arc #14 (Orbit 3175)
    ---------------------------------------
 
    Vector Time (GMT): 2016/084/04:20:00.000
    Vector Time (MET): N/A
    Weight (LBS)     : 905478.2
 
              M50 Cartesian                         M50 Keplerian  
    -----------------------------------       --------------------------------
     X    =        2159635.48                 A    =         6787644.05  meter
     Y    =       -6197368.77  meter          E    =           .0012746
     Z    =        1711211.37                 I    =           51.96755
     XDOT =       5104.529415                 Wp   =          109.37392
     YDOT =        190.847592  meter/sec      RA   =          120.98033  deg
     ZDOT =      -5720.513456                 TA   =           51.94369
                                              MA   =           51.82875
                                              Ha   =            220.682  n.mi
                                              Hp   =            214.613
 
              M50 Cartesian                         J2K Cartesian  
    -----------------------------------       --------------------------------
     X    =        7085418.25                 X    =         2220463.15
     Y    =      -20332574.70  feet           Y    =        -6172877.91  meter
     Z    =        5614210.52                 Z    =         1721851.08
     XDOT =      16747.143751                 XDOT =        5129.803759
     YDOT =        626.140393  feet/sec       YDOT =         248.070239  meter/sec
     ZDOT =     -18768.088767                 ZDOT =       -5695.655547
 
              TDR Cartesian                         TDR Cartesian  
    -----------------------------------       --------------------------------
     X    =       15765799.54                 X    =         4805415.70
     Y    =       14646625.34  feet           Y    =         4464291.40  meter
     Z    =        5661451.79                 Z    =         1725610.50
     XDOT =      -6302.389955                 XDOT =       -1920.968458
     YDOT =      14035.107846  feet/sec       YDOT =        4277.900871  meter/sec
     ZDOT =     -18660.104020                 ZDOT =       -5687.599705
  
  
    The mean element set is posted at the UTC for which position is
    just north of the next ascending node relative to the above
    vector time
 
 
    TWO LINE MEAN ELEMENT SET
  
    ISS
    1 25544U 98067A   16084.21612197  .00016717  00000-0  10270-3 0  9139
    2 25544  51.6389 121.8197 0001878 342.7111  17.3978 15.54274614 31767
  
